$$SOE
2460721.500000000, A.D. 2025-Feb-15 00:00:00.0000, 7.803375805506022E+08, 7.317316268721256E+07, 4.475510544183568E+07,
2460728.500000000, A.D. 2025-Feb-22 00:00:00.0000, 7.791862098804170E+08, 8.063823446529540E+07, 4.669041687822378E+07,
2460735.500000000, A.D. 2025-Mar-01 00:00:00.0000, 7.779565504376730E+08, 8.809514068817550E+07, 4.862103209115733E+07,
2460742.500000000, A.D. 2025-Mar-08 00:00:00.0000, 7.766486386075363E+08, 9.554312204555112E+07, 5.054675107561940E+07,
2460749.500000000, A.D. 2025-Mar-15 00:00:00.0000, 7.752625194331915E+08, 1.029814200508349E+08, 5.246737384283748E+07,
2460756.500000000, A.D. 2025-Mar-22 00:00:00.0000, 7.737982444177650E+08, 1.104092775278330E+08, 5.438270068221936E+07,
2460763.500000000, A.D. 2025-Mar-29 00:00:00.0000, 7.722558706953210E+08, 1.178259368433915E+08, 5.629253211471012E+07,
2460770.500000000, A.D. 2025-Apr-05 00:00:00.0000, 7.706354618959472E+08, 1.252306390243688E+08, 5.819666876388706E+07,
2460777.500000000, A.D. 2025-Apr-12 00:00:00.0000, 7.689370887788608E+08, 1.326226238631998E+08, 6.009491132963123E+07,
2460784.500000000, A.D. 2025-Apr-19 00:00:00.0000, 7.671608294463438E+08, 1.400011301310438E+08, 6.198706060924175E+07,
2460791.500000000, A.D. 2025-Apr-26 00:00:00.0000, 7.653067694101973E+08, 1.473653956958491E+08, 6.387291752422643E+07,
2460798.500000000, A.D. 2025-May-03 00:00:00.0000, 7.633750016243978E+08, 1.547146575648999E+08, 6.575228314369001E+07,
2460805.500000000, A.D. 2025-May-10 00:00:00.0000, 7.613656265125623E+08, 1.620481518608854E+08, 6.762495870223024E+07,
2460812.500000000, A.D. 2025-May-17 00:00:00.0000, 7.592787520269854E+08, 1.693651136907936E+08, 6.949074560549375E+07,
2460819.500000000, A.D. 2025-May-24 00:00:00.0000, 7.571144939132042E+08, 1.766647768534332E+08, 7.134944540290463E+07,
2460826.500000000, A.D. 2025-May-31 00:00:00.0000, 7.548729765978377E+08, 1.839463736967497E+08, 7.320085971459515E+07,
2460833.500000000, A.D. 2025-Jun-07 00:00:00.0000, 7.525543342985901E+08, 1.912091363299437E+08, 7.504479024772036E+07,
2460840.500000000, A.D. 2025-Jun-14 00:00:00.0000, 7.501587099918385E+08, 1.984522985239351E+08, 7.688103906457062E+07,
2460847.500000000, A.D. 2025-Jun-21 00:00:00.0000, 7.476862534549118E+08, 2.056750950290766E+08, 7.870940872363904E+07,
2460854.500000000, A.D. 2025-Jun-28 00:00:00.0000, 7.451371215113490E+08, 2.128767600747650E+08, 8.052970215096489E+07,
2460861.500000000, A.D. 2025-Jul-05 00:00:00.0000, 7.425114789622290E+08, 2.200565272074746E+08, 8.234172255710465E+07,
2460868.500000000, A.D. 2025-Jul-12 00:00:00.0000, 7.398094990124863E+08, 2.272136296620260E+08, 8.414527344320750E+07,
2460875.500000000, A.D. 2025-Jul-19 00:00:00.0000, 7.370313633817456E+08, 2.343473006911267E+08, 8.594015863187262E+07,
2460882.500000000, A.D. 2025-Jul-26 00:00:00.0000, 7.341772623095092E+08, 2.414567737967088E+08, 8.772618229897368E+07,
2460889.500000000, A.D. 2025-Aug-02 00:00:00.0000, 7.312473945199538E+08, 2.485412828848661E+08, 8.950314900229807E+07,
2460896.500000000, A.D. 2025-Aug-09 00:00:00.0000, 7.282419671696386E+08, 2.556000623300420E+08, 9.127086370377861E+07,
2460903.500000000, A.D. 2025-Aug-16 00:00:00.0000, 7.251611958550370E+08, 2.626323468856204E+08, 9.302913177326959E+07,
2460910.500000000, A.D. 2025-Aug-23 00:00:00.0000, 7.220053049725934E+08, 2.696373714577643E+08, 9.477775894860595E+07,
2460917.500000000, A.D. 2025-Aug-30 00:00:00.0000, 7.187745287602751E+08, 2.766143714567667E+08, 9.651655128036487E+07,
2460924.500000000, A.D. 2025-Sep-06 00:00:00.0000, 7.154691116023990E+08, 2.835625847263992E+08, 9.824531527339162E+07,
2460931.500000000, A.D. 2025-Sep-13 00:00:00.0000, 7.120893059271183E+08, 2.904812525687377E+08, 9.996385817575905E+07,
2460938.500000000, A.D. 2025-Sep-20 00:00:00.0000, 7.086353709701737E+08, 2.973696182201440E+08, 1.016719879808844E+08,
2460945.500000000, A.D. 2025-Sep-27 00:00:00.0000, 7.051075734634335E+08, 3.042269258898645E+08, 1.033695133001713E+08,
2460952.500000000, A.D. 2025-Oct-04 00:00:00.0000, 7.015061882313031E+08, 3.110524209005279E+08, 1.050562433353313E+08,
2460959.500000000, A.D. 2025-Oct-11 00:00:00.0000, 6.978314983212363E+08, 3.178453499877189E+08, 1.067319879076794E+08,
2460966.500000000, A.D. 2025-Oct-18 00:00:00.0000, 6.940837949519401E+08, 3.246049614844564E+08, 1.083965574959843E+08,
2460973.500000000, A.D. 2025-Oct-25 00:00:00.0000, 6.902633774187129E+08, 3.313305054019035E+08, 1.100497632709179E+08,
2460980.500000000, A.D. 2025-Nov-01 00:00:00.0000, 6.863705529952488E+08, 3.380212334222131E+08, 1.116914171236351E+08,
2460987.500000000, A.D. 2025-Nov-08 00:00:00.0000, 6.824056368663644E+08, 3.446763987725841E+08, 1.133213316825840E+08,
2460994.500000000, A.D. 2025-Nov-15 00:00:00.0000, 6.783689522394550E+08, 3.512952559224899E+08, 1.149393203000070E+08,
2461001.500000000, A.D. 2025-Nov-22 00:00:00.0000, 6.742608310373533E+08, 3.578770603246246E+08, 1.165451969889716E+08,
2461008.500000000, A.D. 2025-Nov-29 00:00:00.0000, 6.700816150192193E+08, 3.644210693349009E+08, 1.181387764174750E+08,
2461015.500000000, A.D. 2025-Dec-06 00:00:00.0000, 6.658316550517797E+08, 3.709265441759391E+08, 1.197198741571650E+08,
2461022.500000000, A.D. 2025-Dec-13 00:00:00.0000, 6.615113089646600E+08, 3.773927495743344E+08, 1.212883068714040E+08,
2461029.500000000, A.D. 2025-Dec-20 00:00:00.0000, 6.571209414832697E+08, 3.838189520951779E+08, 1.228438922058332E+08,
2461036.500000000, A.D. 2025-Dec-27 00:00:00.0000, 6.526609251653419E+08, 3.902044197653778E+08, 1.243864486915700E+08,
2461043.500000000, A.D. 2026-Jan-03 00:00:00.0000, 6.481316408817706E+08, 3.965484223707428E+08, 1.259157957445247E+08,
2461050.500000000, A.D. 2026-Jan-10 00:00:00.0000, 6.435334779514791E+08, 4.028502317486475E+08, 1.274317536953292E+08,
2461057.500000000, A.D. 2026-Jan-17 00:00:00.0000, 6.388668341628889E+08, 4.091091219855392E+08, 1.289341438211386E+08,
2461064.500000000, A.D. 2026-Jan-24 00:00:00.0000, 6.341321157599359E+08, 4.153243695428514E+08, 1.304227883741156E+08,
2461071.500000000, A.D. 2026-Jan-31 00:00:00.0000, 6.293297374160883E+08, 4.214952533048592E+08, 1.318975106039526E+08,
2461078.500000000, A.D. 2026-Feb-07 00:00:00.0000, 6.244601222579151E+08, 4.276210544920837E+08, 1.333581347642388E+08,
2461085.500000000, A.D. 2026-Feb-14 00:00:00.0000, 6.195237021913315E+08, 4.337010564258465E+08, 1.348044860783464E+08,
2461092.500000000, A.D. 2026-Feb-21 00:00:00.0000, 6.145209189181633E+08, 4.397345447217029E+08, 1.362363906765503E+08,
2461099.500000000, A.D. 2026-Feb-28 00:00:00.0000, 6.094522245580684E+08, 4.457208090656379E+08, 1.376536756981654E+08,
2461106.500000000, A.D. 2026-Mar-07 00:00:00.0000, 6.043180798170311E+08, 4.516591446234103E+08, 1.390561695881966E+08,
2461113.500000000, A.D. 2026-Mar-14 00:00:00.0000, 5.991189524782908E+08, 4.575488507506063E+08, 1.404437021434450E+08,
2461120.500000000, A.D. 2026-Mar-21 00:00:00.0000, 5.938553179987003E+08, 4.633892299012535E+08, 1.418161043814366E+08,
2461127.500000000, A.D. 2026-Mar-28 00:00:00.0000, 5.885276602008538E+08, 4.691795877634574E+08, 1.431732085005322E+08,
2461134.500000000, A.D. 2026-Apr-04 00:00:00.0000, 5.831364714570080E+08, 4.749192336564111E+08, 1.445148479077660E+08,
2461141.500000000, A.D. 2026-Apr-11 00:00:00.0000, 5.776822526386036E+08, 4.806074808289200E+08, 1.458408572600544E+08,
2461148.500000000, A.D. 2026-Apr-18 00:00:00.0000, 5.721655129907773E+08, 4.862436466528656E+08, 1.471510725038555E+08,
2461155.500000000, A.D. 2026-Apr-25 00:00:00.0000, 5.665867699779818E+08, 4.918270527264144E+08, 1.484453309105336E+08,
2461162.500000000, A.D. 2026-May-02 00:00:00.0000, 5.609465491318495E+08, 4.973570248574200E+08, 1.497234711024445E+08,
2461169.500000000, A.D. 2026-May-09 00:00:00.0000, 5.552453840264013E+08, 5.028328928608340E+08, 1.509853330531116E+08,
2461176.500000000, A.D. 2026-May-16 00:00:00.0000, 5.494838167590588E+08, 5.082539903084598E+08, 1.522307580382978E+08,
2461183.500000000, A.D. 2026-May-23 00:00:00.0000, 5.436623989896659E+08, 5.136196552532909E+08, 1.534595886168058E+08,
2461190.500000000, A.D. 2026-May-30 00:00:00.0000, 5.377816914590620E+08, 5.189292322477833E+08, 1.546716688576483E+08,
2461197.500000000, A.D. 2026-Jun-06 00:00:00.0000, 5.318422616697950E+08, 5.241820723826190E+08, 1.558668445750938E+08,
2461204.500000000, A.D. 2026-Jun-13 00:00:00.0000, 5.258446833951893E+08, 5.293775315450989E+08, 1.570449632515787E+08,
2461211.500000000, A.D. 2026-Jun-20 00:00:00.0000, 5.197895375158514E+08, 5.345149698231453E+08, 1.582058739333280E+08,
2461218.500000000, A.D. 2026-Jun-27 00:00:00.0000, 5.136774124850966E+08, 5.395937517149122E+08, 1.593494272263460E+08,
2461225.500000000, A.D. 2026-Jul-04 00:00:00.0000, 5.075089044230635E+08, 5.446132463691283E+08, 1.604754753291613E+08,
2461232.500000000, A.D. 2026-Jul-11 00:00:00.0000, 5.012846170933958E+08, 5.495728277243135E+08, 1.615838720679747E+08,
2461239.500000000, A.D. 2026-Jul-18 00:00:00.0000, 4.950051618551638E+08, 5.544718745726566E+08, 1.626744729275383E+08,
2461246.500000000, A.D. 2026-Jul-25 00:00:00.0000, 4.886711576144286E+08, 5.593097705513295E+08, 1.637471350755118E+08,
2461253.500000000, A.D. 2026-Aug-01 00:00:00.0000, 4.822832308234937E+08, 5.640859040131946E+08, 1.648017173717588E+08,
2461260.500000000, A.D. 2026-Aug-08 00:00:00.0000, 4.758420157426920E+08, 5.687996677411354E+08, 1.658380803398129E+08,
2461267.500000000, A.D. 2026-Aug-15 00:00:00.0000, 4.693481553797488E+08, 5.734504589565356E+08, 1.668560860991771E+08,
2461274.500000000, A.D. 2026-Aug-22 00:00:00.0000, 4.628023023456025E+08, 5.780376808431901E+08, 1.678555984279581E+08,
2461281.500000000, A.D. 2026-Aug-29 00:00:00.0000, 4.562051173372289E+08, 5.825607442139035E+08, 1.688364830534747E+08,
2461288.500000000, A.D. 2026-Sep-05 00:00:00.0000, 4.495572673808467E+08, 5.870190664520330E+08, 1.697986077408337E+08,
2461295.500000000, A.D. 2026-Sep-12 00:00:00.0000, 4.428594262906224E+08, 5.914120702239587E+08, 1.707418421584035E+08,
$$EOE